{
  "type": "FeatureCollection",
  "features": [
    {
      "type": "Feature",
      "properties": {
        "norad_id": 59600,
        "name": "GSAT0227 (GALILEO 30)",
        "group": "galileo",
        "lat": 9.097361841089219,
        "lon": -79.92053028530236,
        "alt_km": 23215.458168200854,
        "timestamp": "2025-12-03T22:42:32.899021+00:00",
        "meta_object_name": "GSAT0227 (GALILEO 30)",
        "meta_object_id": "2024-079C",
        "meta_epoch": "2025-12-03T02:01:55.687584",
        "meta_mean_motion": 1.7047462,
        "meta_eccentricity": 0.0003407,
        "meta_inclination": 54.9908,
        "meta_ra_of_asc_node": 106.5644,
        "meta_arg_of_pericenter": 113.2463,
        "meta_mean_anomaly": 246.7473,
        "meta_ephemeris_type": 0,
        "meta_classification_type": "U",
        "meta_norad_cat_id": 59600,
        "meta_element_set_no": 999,
        "meta_rev_at_epoch": 1002,
        "meta_bstar": 0,
        "meta_mean_motion_dot": 2.3e-07,
        "meta_mean_motion_ddot": 0,
        "tle_line1": "1 59600U 24079C   25337.08467231  .00000023  00000+0  00000+0 0  9996",
        "tle_line2": "2 59600  54.9908 106.5644 0003407 113.2463 246.7473  1.70474620 10024"
      },
      "geometry": {
        "type": "Point",
        "coordinates": [
          -79.92053028530236,
          9.097361841089219
        ]
      }
    },
    {
      "type": "Feature",
      "properties": {
        "norad_id": 61182,
        "name": "GSAT0232 (GALILEO 32)",
        "group": "galileo",
        "lat": 2.665675860740971,
        "lon": -131.4737726101118,
        "alt_km": 23227.780916277643,
        "timestamp": "2025-12-03T22:42:32.899031+00:00",
        "meta_object_name": "GSAT0232 (GALILEO 32)",
        "meta_object_id": "2024-167A",
        "meta_epoch": "2025-11-29T15:16:36.414048",
        "meta_mean_motion": 1.70473184,
        "meta_eccentricity": 0.00022439,
        "meta_inclination": 55.2459,
        "meta_ra_of_asc_node": 226.7912,
        "meta_arg_of_pericenter": 216.1557,
        "meta_mean_anomaly": 22.2275,
        "meta_ephemeris_type": 0,
        "meta_classification_type": "U",
        "meta_norad_cat_id": 61182,
        "meta_element_set_no": 999,
        "meta_rev_at_epoch": 747,
        "meta_bstar": 0,
        "meta_mean_motion_dot": 2.7e-07,
        "meta_mean_motion_ddot": 0,
        "tle_line1": "1 61182U 24167A   25333.63653257  .00000027  00000+0  00000+0 0  9998",
        "tle_line2": "2 61182  55.2459 226.7912 0002243 216.1557  22.2275  1.70473184  7470"
      },
      "geometry": {
        "type": "Point",
        "coordinates": [
          -131.4737726101118,
          2.665675860740971
        ]
      }
    },
    {
      "type": "Feature",
      "properties": {
        "norad_id": 61183,
        "name": "GSAT0226 (GALILEO 31)",
        "group": "galileo",
        "lat": 47.65630248502507,
        "lon": -2.8555696748301362,
        "alt_km": 23215.17619252505,
        "timestamp": "2025-12-03T22:42:32.899042+00:00",
        "meta_object_name": "GSAT0226 (GALILEO 31)",
        "meta_object_id": "2024-167B",
        "meta_epoch": "2025-11-26T08:32:06.516672",
        "meta_mean_motion": 1.70473481,
        "meta_eccentricity": 6.079e-05,
        "meta_inclination": 55.246,
        "meta_ra_of_asc_node": 226.8867,
        "meta_arg_of_pericenter": 154.246,
        "meta_mean_anomaly": 343.2327,
        "meta_ephemeris_type": 0,
        "meta_classification_type": "U",
        "meta_norad_cat_id": 61183,
        "meta_element_set_no": 999,
        "meta_rev_at_epoch": 739,
        "meta_bstar": 0,
        "meta_mean_motion_dot": 3e-07,
        "meta_mean_motion_ddot": 0,
        "tle_line1": "1 61183U 24167B   25330.35563098  .00000030  00000+0  00000+0 0  9992",
        "tle_line2": "2 61183  55.2460 226.8867 0000607 154.2460 343.2327  1.70473481  7395"
      },
      "geometry": {
        "type": "Point",
        "coordinates": [
          -2.8555696748301362,
          47.65630248502507
        ]
      }
    }
  ]
}